{"type": "FeatureCollection", "features": [ {"type": "Feature", "properties": {"norad_id": 39620, "name": "COSMOS 2492 (754)", "group": "gnss", "lat": -35.296294530725724, "lon": -58.54860037603296, "alt_km": 19098.638397251994, "timestamp": "2025-12-09T16:56:36.817554+00:00", "meta": {"OBJECT_NAME": "COSMOS 2492 (754)", "OBJECT_ID": "2014-012A", "EPOCH": "2025-12-09T06:54:46.186848", "MEAN_MOTION": 2.13102988, "ECCENTRICITY": 0.0014208, "INCLINATION": 65.4097, "RA_OF_ASC_NODE": 320.3884, "ARG_OF_PERICENTER": 310.9979, "MEAN_ANOMALY": 48.8757, "EPHEMERIS_TYPE": 0, "CLASSIFICATION_TYPE": "U", "NORAD_CAT_ID": 39620, "ELEMENT_SET_NO": 999, "REV_AT_EPOCH": 9119, "BSTAR": 0, "MEAN_MOTION_DOT": -4.9e-07, "MEAN_MOTION_DDOT": 0}, "tle": {"line1": "1 39620U 14012A   25343.28803457 -.00000049  00000+0  00000+0 0  9994", "line2": "2 39620  65.4097 320.3884 0014208 310.9979  48.8757  2.13102988 91197"}}, "geometry": {"type": "Point", "coordinates": [-58.54860037603296, -35.296294530725724]}}, {"type": "Feature", "properties": {"norad_id": 39635, "name": "IRNSS-1B", "group": "gnss", "lat": 16.41824928065166, "lon": 31.345025989702496, "alt_km": 35724.45017550718, "timestamp": "2025-12-09T16:56:36.817566+00:00", "meta": {"OBJECT_NAME": "IRNSS-1B", "OBJECT_ID": "2014-017A", "EPOCH": "2025-12-07T19:02:08.350080", "MEAN_MOTION": 1.00276938, "ECCENTRICITY": 0.00176548, "INCLINATION": 28.8332, "RA_OF_ASC_NODE": 243.6763, "ARG_OF_PERICENTER": 183.0277, "MEAN_ANOMALY": 350.7455, "EPHEMERIS_TYPE": 0, "CLASSIFICATION_TYPE": "U", "NORAD_CAT_ID": 39635, "ELEMENT_SET_NO": 999, "REV_AT_EPOCH": 4287, "BSTAR": 0, "MEAN_MOTION_DOT": 1.18e-06, "MEAN_MOTION_DDOT": 0}, "tle": {"line1": "1 39635U 14017A   25341.79315220  .00000118  00000+0  00000+0 0  9991", "line2": "2 39635  28.8332 243.6763 0017654 183.0277 350.7455  1.00276938 42872"}}, "geometry": {"type": "Point", "coordinates": [31.345025989702496, 16.41824928065166]}}, {"type": "Feature", "properties": {"norad_id": 39727, "name": "LUCH 5V (SDCM/PRN 141)", "group": "gnss", "lat": -0.29954191500534455, "lon": 67.65193950965423, "alt_km": 35803.7468916894, "timestamp": "2025-12-09T16:56:36.817578+00:00", "meta": {"OBJECT_NAME": "LUCH 5V (SDCM/PRN 141)", "OBJECT_ID": "2014-023A", "EPOCH": "2025-12-08T17:28:47.961696", "MEAN_MOTION": 1.00270251, "ECCENTRICITY": 0.00045753, "INCLINATION": 4.6594, "RA_OF_ASC_NODE": 71.5729, "ARG_OF_PERICENTER": 204.2143, "MEAN_ANOMALY": 158.9163, "EPHEMERIS_TYPE": 0, "CLASSIFICATION_TYPE": "U", "NORAD_CAT_ID": 39727, "ELEMENT_SET_NO": 999, "REV_AT_EPOCH": 4245, "BSTAR": 0, "MEAN_MOTION_DOT": -2.68e-06, "MEAN_MOTION_DDOT": 0}, "tle": {"line1": "1 39727U 14023A   25342.72833289 -.00000268  00000+0  00000+0 0  9991", "line2": "2 39727   4.6594  71.5729 0004575 204.2143 158.9163  1.00270251 42452"}}, "geometry": {"type": "Point", "coordinates": [67.65193950965423, -0.29954191500534455]}}, {"type": "Feature", "properties": {"norad_id": 39741, "name": "GPS BIIF-6  (PRN 06)", "group": "gnss", "lat": 27.243349937041383, "lon": 139.018049999618, "alt_km": 20281.854537909774, "timestamp": "2025-12-09T16:56:36.817592+00:00", "meta": {"OBJECT_NAME": "GPS BIIF-6  (PRN 06)", "OBJECT_ID": "2014-026A", "EPOCH": "2025-12-09T00:05:22.717824", "MEAN_MOTION": 2.00561537, "ECCENTRICITY": 0.00390851, "INCLINATION": 56.5851, "RA_OF_ASC_NODE": 338.9217, "ARG_OF_PERICENTER": 318.4622, "MEAN_ANOMALY": 41.2516, "EPHEMERIS_TYPE": 0, "CLASSIFICATION_TYPE": "U", "NORAD_CAT_ID": 39741, "ELEMENT_SET_NO": 999, "REV_AT_EPOCH": 8472, "BSTAR": 0, "MEAN_MOTION_DOT": -8.4e-07, "MEAN_MOTION_DDOT": 0}, "tle": {"line1": "1 39741U 14026A   25343.00373516 -.00000084  00000+0  00000+0 0  9990", "line2": "2 39741  56.5851 338.9217 0039085 318.4622  41.2516  2.00561537 84729"}}, "geometry": {"type": "Point", "coordinates": [139.018049999618, 27.243349937041383]}}, {"type": "Feature", "properties": {"norad_id": 40001, "name": "COSMOS 2500 (755)", "group": "gnss", "lat": -7.669748703169117, "lon": 143.66965623012234, "alt_km": 19112.894094898817, "timestamp": "2025-12-09T16:56:36.817604+00:00", "meta": {"OBJECT_NAME": "COSMOS 2500 (755)", "OBJECT_ID": "2014-032A", "EPOCH": "2025-12-08T23:47:04.888320", "MEAN_MOTION": 2.13105786, "ECCENTRICITY": 0.00083334, "INCLINATION": 65.3455, "RA_OF_ASC_NODE": 320.1603, "ARG_OF_PERICENTER": 219.1705, "MEAN_ANOMALY": 140.7654, "EPHEMERIS_TYPE": 0, "CLASSIFICATION_TYPE": "U", "NORAD_CAT_ID": 40001, "ELEMENT_SET_NO": 999, "REV_AT_EPOCH": 8940, "BSTAR": 0, "MEAN_MOTION_DOT": -4.9e-07, "MEAN_MOTION_DDOT": 0}, "tle": {"line1": "1 40001U 14032A   25342.99102880 -.00000049  00000+0  00000+0 0  9990", "line2": "2 40001  65.3455 320.1603 0008333 219.1705 140.7654  2.13105786 89403"}}, "geometry": {"type": "Point", "coordinates": [143.66965623012234, -7.669748703169117]}}, {"type": "Feature", "properties": {"norad_id": 40105, "name": "GPS BIIF-7  (PRN 09)", "group": "gnss", "lat": 54.76493392141389, "lon": 175.2750218019092, "alt_km": 20104.610568725882, "timestamp": "2025-12-09T16:56:36.817616+00:00", "meta": {"OBJECT_NAME": "GPS BIIF-7  (PRN 09)", "OBJECT_ID": "2014-045A", "EPOCH": "2025-12-08T14:13:50.768544", "MEAN_MOTION": 2.00572212, "ECCENTRICITY": 0.00327724, "INCLINATION": 55.2267, "RA_OF_ASC_NODE": 96.0644, "ARG_OF_PERICENTER": 119.7768, "MEAN_ANOMALY": 240.5333, "EPHEMERIS_TYPE": 0, "CLASSIFICATION_TYPE": "U", "NORAD_CAT_ID": 40105, "ELEMENT_SET_NO": 999, "REV_AT_EPOCH": 8225, "BSTAR": 0, "MEAN_MOTION_DOT": 0, "MEAN_MOTION_DDOT": 0}, "tle": {"line1": "1 40105U 14045A   25342.59294871  .00000000  00000+0  00000+0 0  9993", "line2": "2 40105  55.2267  96.0644 0032772 119.7768 240.5333  2.00572212 82256"}}, "geometry": {"type": "Point", "coordinates": [175.2750218019092, 54.76493392141389]}}, {"type": "Feature", "properties": {"norad_id": 40128, "name": "GSAT0201 (GALILEO 5)", "group": "gnss", "lat": 4.488014074405595, "lon": -74.92938541634774, "alt_km": 26027.445969035503, "timestamp": "2025-12-09T16:56:36.817635+00:00", "meta": {"OBJECT_NAME": "GSAT0201 (GALILEO 5)", "OBJECT_ID": "2014-050A", "EPOCH": "2025-12-07T12:54:32.900256", "MEAN_MOTION": 1.85519488, "ECCENTRICITY": 0.16474216, "INCLINATION": 49.0828, "RA_OF_ASC_NODE": 281.2757, "ARG_OF_PERICENTER": 172.085, "MEAN_ANOMALY": 190.9173, "EPHEMERIS_TYPE": 0, "CLASSIFICATION_TYPE": "U", "NORAD_CAT_ID": 40128, "ELEMENT_SET_NO": 999, "REV_AT_EPOCH": 7476, "BSTAR": 0, "MEAN_MOTION_DOT": -5.9e-07, "MEAN_MOTION_DDOT": 0}, "tle": {"line1": "1 40128U 14050A   25341.53788079 -.00000059  00000+0  00000+0 0  9990", "line2": "2 40128  49.0828 281.2757 1647421 172.0850 190.9173  1.85519488 74761"}}, "geometry": {"type": "Point", "coordinates": [-74.92938541634774, 4.488014074405595]}}, {"type": "Feature", "properties": {"norad_id": 40129, "name": "GSAT0202 (GALILEO 6)", "group": "gnss", "lat": -22.254082856072007, "lon": 121.00401660847132, "alt_km": 17677.88628352021, "timestamp": "2025-12-09T16:56:36.817647+00:00", "meta": {"OBJECT_NAME": "GSAT0202 (GALILEO 6)", "OBJECT_ID": "2014-050B", "EPOCH": "2025-12-08T20:55:50.636640", "MEAN_MOTION": 1.85520286, "ECCENTRICITY": 0.16482545, "INCLINATION": 49.097, "RA_OF_ASC_NODE": 280.3049, "ARG_OF_PERICENTER": 172.8865, "MEAN_ANOMALY": 189.8198, "EPHEMERIS_TYPE": 0, "CLASSIFICATION_TYPE": "U", "NORAD_CAT_ID": 40129, "ELEMENT_SET_NO": 999, "REV_AT_EPOCH": 7695, "BSTAR": 0, "MEAN_MOTION_DOT": -6.8e-07, "MEAN_MOTION_DDOT": 0}, "tle": {"line1": "1 40129U 14050B   25342.87211385 -.00000068  00000+0  00000+0 0  9990", "line2": "2 40129  49.0970 280.3049 1648254 172.8865 189.8198  1.85520286 76958"}}, "geometry": {"type": "Point", "coordinates": [121.00401660847132, -22.254082856072007]}}, {"type": "Feature", "properties": {"norad_id": 40269, "name": "IRNSS-1C", "group": "gnss", "lat": -3.612262457556648, "lon": 55.78310557969277, "alt_km": 35729.35592618435, "timestamp": "2025-12-09T16:56:36.817659+00:00", "meta": {"OBJECT_NAME": "IRNSS-1C", "OBJECT_ID": "2014-061A", "EPOCH": "2025-12-09T08:49:49.938240", "MEAN_MOTION": 1.00268269, "ECCENTRICITY": 0.0017771, "INCLINATION": 6.0324, "RA_OF_ASC_NODE": 92.69, "ARG_OF_PERICENTER": 2.4127, "MEAN_ANOMALY": 198.6303, "EPHEMERIS_TYPE": 0, "CLASSIFICATION_TYPE": "U", "NORAD_CAT_ID": 40269, "ELEMENT_SET_NO": 999, "REV_AT_EPOCH": 4078, "BSTAR": 0, "MEAN_MOTION_DOT": -1.58e-06, "MEAN_MOTION_DDOT": 0}, "tle": {"line1": "1 40269U 14061A   25343.36793910 -.00000158  00000+0  00000+0 0  9991", "line2": "2 40269   6.0324  92.6900 0017771   2.4127 198.6303  1.00268269 40786"}}, "geometry": {"type": "Point", "coordinates": [55.78310557969277, -3.612262457556648]}}, {"type": "Feature", "properties": {"norad_id": 40294, "name": "GPS BIIF-8  (PRN 03)", "group": "gnss", "lat": 5.53923762326966, "lon": -145.35037967564367, "alt_km": 20220.36527463763, "timestamp": "2025-12-09T16:56:36.817671+00:00", "meta": {"OBJECT_NAME": "GPS BIIF-8  (PRN 03)", "OBJECT_ID": "2014-068A", "EPOCH": "2025-12-09T11:13:35.594976", "MEAN_MOTION": 2.00564545, "ECCENTRICITY": 0.0060787, "INCLINATION": 56.8554, "RA_OF_ASC_NODE": 38.2726, "ARG_OF_PERICENTER": 69.25, "MEAN_ANOMALY": 291.455, "EPHEMERIS_TYPE": 0, "CLASSIFICATION_TYPE": "U", "NORAD_CAT_ID": 40294, "ELEMENT_SET_NO": 999, "REV_AT_EPOCH": 8140, "BSTAR": 0, "MEAN_MOTION_DOT": -8.3e-07, "MEAN_MOTION_DDOT": 0}, "tle": {"line1": "1 40294U 14068A   25343.46777309 -.00000083  00000+0  00000+0 0  9998", "line2": "2 40294  56.8554  38.2726 0060787  69.2500 291.4550  2.00564545 81402"}}, "geometry": {"type": "Point", "coordinates": [-145.35037967564367, 5.53923762326966]}}]}